IRIDIUM 144             
1 43249U 18030A   24213.54559513  .00000063  00000+0  15544-4 0  9994
2 43249  86.3965 216.9276 0002268  83.0470 277.0983 14.34217577331884
IRIDIUM 149             
1 43250U 18030B   24213.06355922  .00000192  00000+0  61553-4 0  9995
2 43250  86.3963 217.1036 0002156  85.6392 274.5050 14.34216794331818
IRIDIUM 157             
1 43251U 18030C   24213.50119710  .00000092  00000+0  25859-4 0  9996
2 43251  86.3964 216.9587 0002194  97.1764 262.9682 14.34218057331851
IRIDIUM 140             
1 43252U 18030D   24213.52022532  .00000081  00000+0  21844-4 0  9992
2 43252  86.3965 216.9652 0002508  82.2503 277.8977 14.34218029331919
IRIDIUM 145             
1 43253U 18030E   24213.50753926 -.00000017  00000+0 -13104-4 0  9990
2 43253  86.3968 216.9440 0001999  79.0718 281.0703 14.34217478331846
IRIDIUM 146             
1 43254U 18030F   24213.55828074  .00000250  00000+0  82078-4 0  9996
2 43254  86.3964 216.9376 0002228  84.9324 275.2126 14.34219546331869
IRIDIUM 148             
1 43255U 18030G   24213.10795623  .00000078  00000+0  20873-4 0  9994
2 43255  86.3966 217.1583 0002165  91.7224 268.4220 14.34217935331847
IRIDIUM 142             
1 43256U 18030H   24212.93670616  .00000137  00000+0  41725-4 0  9994
2 43256  86.3962 217.1439 0002161  81.9432 278.2008 14.34217991331779
